[{"OBJECT_NAME":"ONEWEB-0429","OBJECT_ID":"2021-132AH","EPOCH":"2026-03-09T17:06:28.930176","MEAN_MOTION":13.18686546,"ECCENTRICITY":0.00018486,"INCLINATION":87.9248,"RA_OF_ASC_NODE":355.2198,"ARG_OF_PERICENTER":82.9914,"MEAN_ANOMALY":277.1428,"EPHEMERIS_TYPE":0,"CLASSIFICATION_TYPE":"U","NORAD_CAT_ID":50500,"ELEMENT_SET_NO":999,"REV_AT_EPOCH":20847,"BSTAR":-6.1219241e-5,"MEAN_MOTION_DOT":-1.1e-7,"MEAN_MOTION_DDOT":0},{"OBJECT_NAME":"FENGYUN 1C DEB","OBJECT_ID":"1999-025CQA","EPOCH":"2026-03-03T00:17:47.903136","MEAN_MOTION":13.61045266,"ECCENTRICITY":0.02876193,"INCLINATION":102.504,"RA_OF_ASC_NODE":132.7692,"ARG_OF_PERICENTER":93.751,"MEAN_ANOMALY":269.6553,"EPHEMERIS_TYPE":0,"CLASSIFICATION_TYPE":"U","NORAD_CAT_ID":31997,"ELEMENT_SET_NO":999,"REV_AT_EPOCH":62775,"BSTAR":0.0018832508,"MEAN_MOTION_DOT":1.817e-5,"MEAN_MOTION_DDOT":0}]
